HELLAS-SAT 4 & SGS-1    
1 44034U 19007A   25172.58119297  .00000162  00000+0  00000+0 0  9998
2 44034   0.0695 132.9719 0005517  10.4768  14.8012  1.00271767 23746
GSAT-31                 
1 44035U 19007B   25172.62197432  .00000135  00000+0  00000+0 0  9991
2 44035   0.0468 102.5011 0000867 172.4729 266.8633  1.00270215 23354
NUSANTARA SATU          
1 44048U 19009A   25172.50569961 -.00000225  00000+0  00000+0 0  9995
2 44048   0.0445 151.9082 0004313 325.9713 120.1245  1.00271040 23153
ZHONGXING-6C            
1 44067U 19012A   25172.50183366 -.00000325  00000+0  00000+0 0  9992
2 44067   0.0089 349.5169 0008570  57.3472 174.1455  1.00273110 23125
WGS 10 (USA 291)        
1 44071U 19014A   25172.51396150  .00000057  00000+0  00000+0 0  9998
2 44071   0.0209   5.4950 0001717 237.7572 272.0099  1.00270521 23003
TIANLIAN 2-01           
1 44076U 19017A   25172.51726295 -.00000097  00000+0  00000+0 0  9998
2 44076   0.2254  93.2636 0001124 357.9752  81.9901  1.00271222 23034
ARABSAT-6A              
1 44186U 19021A   25172.57945537  .00000163  00000+0  00000+0 0  9996
2 44186   0.0475 352.4004 0002718 137.4181  19.2729  1.00272902 22548
BEIDOU-3 IGSO-1         
1 44204U 19023A   25172.62919898 -.00000232  00000+0  00000+0 0  9994
2 44204  58.1823  41.3727 0023173 217.3836 354.5353  1.00295477  3593
BEIDOU-2 G8             
1 44231U 19027A   25172.50569985 -.00000239  00000+0  00000+0 0  9990
2 44231   1.7016  75.1557 0004081 255.0137 266.3270  1.00272249 22464
YAMAL 601               
1 44307U 19031A   25172.62197432  .00000129  00000+0  00000+0 0  9993
2 44307   0.0211  50.3166 0002409  36.7709  95.8883  1.00272734 22306
AT&T T-16               
1 44333U 19034A   25172.55339125 -.00000105  00000+0  00000+0 0  9999
2 44333   0.0282  76.0632 0000640 258.9634  33.3268  1.00269630 22019
EUTELSAT 7C             
1 44334U 19034B   25172.57467696  .00000058  00000+0  00000+0 0  9993
2 44334   0.0702 185.6870 0003059 245.5042  52.6935  1.00270475  3226
BEIDOU-3 IGSO-2         
1 44337U 19035A   25172.57611966 -.00000054  00000+0  00000+0 0  9995
2 44337  55.2125 162.0294 0035876 210.9383 224.3663  1.00269249 22050
COSMOS 2539             
1 44457U 19048A   25172.57580640  .00000090  00000+0  00000+0 0  9995
2 44457   0.0358  99.3951 0000513  80.4192 309.4758  1.00270073 21617
EDRS-C                  
1 44475U 19049A   25171.85597898 -.00000251  00000+0  00000+0 0  9999
2 44475   0.0651 114.1037 0000965  44.9164 200.9869  1.00268908 21598
INTELSAT 39 (IS-39)     
1 44476U 19049B   25172.60679902  .00000043  00000+0  00000+0 0  9999
2 44476   0.0011 355.4500 0001249 320.2701 234.7150  1.00270560 21514
AMOS-17                 
1 44479U 19050A   25172.57676208  .00000119  00000+0  00000+0 0  9990
2 44479   0.0173 348.5078 0002472 132.2706  13.8759  1.00272097 21578
AEHF-5 (USA 292)        
1 44481U 19051A   25172.52036877 -.00000248  00000+0  00000+0 0  9995
2 44481   1.9674 315.6883 0066188  13.6076 221.0842  1.00272462 21642
EUTELSAT 5 WEST B       
1 44624U 19067A   25172.35825698 -.00000032  00000+0  00000+0 0  9990
2 44624   0.0690 334.4624 0002947 115.4380 303.8648  1.00270825 20815
MEV-1                   
1 44625U 19067B   25172.60414714 -.00000137  00000+0  00000+0 0  9998
2 44625   0.8342  85.0131 0000225  44.2311 154.4382  1.00271758 19358
TJS-4                   
1 44637U 19070A   25172.57781490 -.00000159  00000+0  00000+0 0  9993
2 44637   0.0265 246.9705 0003949 158.5079 156.0512  1.00268989 20850
BEIDOU-3 IGSO-3         
1 44709U 19073A   25169.73004392 -.00000210  00000+0  00000+0 0  9997
2 44709  55.4234 284.8217 0045419 183.7741 176.1895  1.00244594 20812
TIBA-1                  
1 44800U 19080A   25172.43758714  .00000166  00000+0  00000+0 0  9991
2 44800   0.0555  20.1769 0001919  85.7414 356.9805  1.00272513 20444
INMARSAT GX5            
1 44801U 19080B   25172.57563264  .00000084  00000+0  00000+0 0  9990
2 44801   0.0366  12.4591 0001686 100.8984  14.8916  1.00269105  3171
JCSAT-18 (KACIFIC 1)    
1 44868U 19091A   25172.46044318 -.00000192  00000+0  00000+0 0  9998
2 44868   0.0322 227.8027 0000450   0.6211 357.2258  1.00267902 20399
ELEKTRO-L 3             
1 44903U 19095A   25172.51708919 -.00000087  00000+0  00000+0 0  9995
2 44903   0.0757 159.9158 0000491 345.3713  26.8725  1.00270714 20092
SHIJIAN-20 (SJ-20)      
1 44910U 19097A   25172.61250558 -.00000201  00000+0  00000+0 0  9995
2 44910   3.9943  79.5104 0010001 317.2653 181.3800  1.00270927 20082
TJS-5                   
1 44978U 20002A   25172.55151477 -.00000333  00000+0  00000+0 0  9996
2 44978   0.1088 262.0509 0001414 245.8919  68.1125  1.00271628 20083
GSAT-30                 
1 45026U 20005A   25172.57781479 -.00000155  00000+0  00000+0 0  9999
2 45026   0.0582 101.7378 0003731 347.2352 112.0679  1.00270910 19894
EUTELSAT KONNECT        
1 45027U 20005B   25172.57467696  .00000059  00000+0  00000+0 0  9994
2 45027   0.0636  92.1033 0001223 140.7728 251.2221  1.00267581 20715
JCSAT-17                
1 45245U 20013A   25172.50357865 -.00000310  00000+0  00000+0 0  9995
2 45245   5.4376 353.3209 0003144 111.8669 122.0568  1.00271564 19613
GEO-KOMPSAT-2B          
1 45246U 20013B   25172.49823100 -.00000334  00000+0  00000+0 0  9990
2 45246   0.0362 228.3618 0000654  26.2827 322.9139  1.00273083 19661
BEIDOU-3 G2             
1 45344U 20017A   25172.44651072 -.00000134  00000+0  00000+0 0  9993
2 45344   2.8794  40.5554 0001711  41.2209  68.8672  1.00271970 19647
AEHF-6 (USA 298)        
1 45465U 20022B   25172.50623763 -.00000286  00000+0  00000+0 0  9994
2 45465   3.3566 298.3975 0042544  13.0235 278.5444  1.00269921 19391
BEIDOU-3 G3             
1 45807U 20040A   25172.62660281 -.00000345  00000+0  00000+0 0  9999
2 45807   1.5716  64.1883 0004614 352.6094 189.3796  1.00267741 18459
APSTAR-6D               
1 45863U 20045A   25172.61048669 -.00000309  00000+0  00000+0 0  9995
2 45863   0.0427  89.0752 0002688 359.6293 175.1226  1.00268423 18248
KOREASAT 116            
1 45920U 20048A   25172.49048375 -.00000352  00000+0  00000+0 0  9990
2 45920   0.0148 313.8818 0000864 126.3458 122.4658  1.00273134 18024
EXPRESS 103             
1 45985U 20053A   25172.44981216 -.00000271  00000+0  00000+0 0  9992
2 45985   0.0240   2.0674 0000651 295.7432 230.5160  1.00270072 18030
EXPRESS 80              
1 45986U 20053B   25172.02928615 -.00000125  00000+0  00000+0 0  9999
2 45986   0.0206 332.5813 0001317 229.6596 157.7534  1.00271233 18019
BSAT-4B                 
1 46112U 20056A   25172.62550728 -.00000340  00000+0  00000+0 0  9995
2 46112   0.0507 153.5174 0003918 326.6267 124.9385  1.00270320 17776
MEV-2                   
1 46113U 20056B   25172.57311310 -.00000001  00000+0  00000+0 0  9996
2 46113   0.0185 352.6398 0000728  95.6614  27.0635  1.00269772 18540
GALAXY 30 (G-30)        
1 46114U 20056C   25172.54861282  .00000047  00000+0  00000+0 0  9991
2 46114   0.0030  81.3043 0001798   4.0452 257.1325  1.00272811 17678
GAOFEN-13 01            
1 46610U 20071A   25172.49131294 -.00000353  00000+0  00000+0 0  9997
2 46610   0.6170  85.2381 0016114 125.6905 353.8575  1.00269378 17304
TIANTONG-1 2            
1 46916U 20082A   25172.49518579 -.00000345  00000+0  00000+0 0  9994
2 46916   1.4772 299.5723 0000839 136.6197 136.9480  1.00273160 17031
LUCAS (JDRS-1)          
1 47202U 20089A   25172.62122524 -.00000225  00000+0  00000+0 0  9993
2 47202   0.0429  90.4093 0002545 337.3711 156.6339  1.00266534 16803
SXM-7                   
1 47240U 20096A   25172.45378608 -.00000201  00000+0  00000+0 0  9994
2 47240   0.0282 106.4553 0006696   1.0520 240.6047  1.00324449  3834
CMS-01                  
1 47256U 20099A   25172.57724233 -.00000155  00000+0  00000+0 0  9994
2 47256   0.0812  96.3945 0004487 177.1841 287.2539  1.00270738 16589
TURKSAT 5A              
1 47306U 21001A   25172.57954226  .00000164  00000+0  00000+0 0  9990
2 47306   0.0386  84.8399 0000122 254.0533 170.6926  1.00270676 16352
TIANTONG-1 3            
1 47321U 21003A   25172.44685824 -.00000145  00000+0  00000+0 0  9990
2 47321   2.1997 321.5684 0001006 143.1218  47.6119  1.00271102 16349
TJS-6                   
1 47613U 21010A   25170.41969106  .00000054  00000+0  00000+0 0  9993
2 47613   0.5016  89.8080 0002739 113.5722  34.0857  1.00269357 16175
SBIRS GEO-5 (USA 315)   
1 48618U 21042A   25172.57754400  .00000126  00000+0  00000+0 0  9992
2 48618   5.5914 326.8625 0001588 124.9113  47.0686  1.00271743 15145
FENGYUN 4B              
1 48808U 21047A   25172.38006644 -.00000320  00000+0  00000+0 0  9994
2 48808   0.0175   8.1168 0002495 317.8046 185.4550  1.00268402 14967
SXM-8                   
1 48838U 21049A   25172.48520409 -.00000194  00000+0  00000+0 0  9999
2 48838   0.0162  22.6553 0004320  14.6231 322.1448  1.00266403 14978
TIANLIAN 1-05           
1 49011U 21063A   25172.57676208  .00000117  00000+0  00000+0 0  9992
2 49011   0.6636  82.2255 0000820  49.8202   2.3995  1.00270398 14460
STAR ONE D2             
1 49055U 21069A   25172.48815802 -.00000254  00000+0  00000+0 0  9994
2 49055   0.0167 348.8407 0001978 122.1627 264.5644  1.00267810 14314
EUTELSAT QUANTUM        
1 49056U 21069B   25172.62197432  .00000135  00000+0  00000+0 0  9990
2 49056   0.0203  40.7261 0001268  64.1611  76.7746  1.00272622 14315
ZHONGXING-2E            
1 49062U 21071A   25172.45007281 -.00000282  00000+0  00000+0 0  9997
2 49062   0.0456 122.2922 0001854  24.6663  23.0162  1.00270920 14429
TJS-7                   
1 49115U 21077A   25172.55373877 -.00000114  00000+0  00000+0 0  9994
2 49115   0.4309  88.5555 0001332  54.9710 226.3409  1.00271997  5949
CHINASAT 9B             
1 49125U 21080A   25172.59321476 -.00000303  00000+0  00000+0 0  9991
2 49125   0.0289 274.9163 0002288 193.4529 116.6029  1.00273389 14033
